STARLINK-35964          
1 66796U 25278F   25357.01102368  .00410276  00000+0  19554-2 0  9996
2 66796  42.9914 188.0511 0002244 289.9110  70.1520 15.80936741  3474
STARLINK-36099          
1 66797U 25278G   25357.25001157  .00022863  00000+0  39493-3 0  9993
2 66797  42.9998 188.7334 0001910 254.9533 254.4695 15.50540022  4704
STARLINK-36041          
1 66798U 25278H   25357.25001157  .00029485  00000+0  50717-3 0  9993
2 66798  42.9998 188.7285 0002200 260.1528 251.1688 15.50541413  4482
STARLINK-36044          
1 66799U 25278J   25357.25001157  .00021529  00000+0  37218-3 0  9996
2 66799  42.9997 188.7236 0001725 249.0138 264.2227 15.50549491  4648
STARLINK-35996          
1 66800U 25278K   25357.25001157  .00020275  00000+0  35100-3 0  9994
2 66800  42.9995 188.7140 0001766 266.9556 250.1368 15.50540247  4437
STARLINK-36080          
1 66801U 25278L   25357.25001157  .00030192  00000+0  51919-3 0  9990
2 66801  43.0000 188.6891 0002324 260.9037 265.7539 15.50539249  4643
STARLINK-35604          
1 66802U 25278M   25357.25001157  .00023050  00000+0  39798-3 0  9997
2 66802  42.9996 188.7190 0002220 260.5968 254.5599 15.50548631  4640
STARLINK-35565          
1 66803U 25278N   25357.25001157 -.00034656  00000+0 -58748-3 0  9990
2 66803  42.9998 188.7094 0002274 254.9944 263.9843 15.50578406  4735
STARLINK-36038          
1 66804U 25278P   25357.25001157  .00027756  00000+0  47821-3 0  9992
2 66804  42.9997 188.7041 0001719 284.6148 236.3696 15.50522223  4642
STARLINK-36049          
1 66805U 25278Q   25357.25001157  .00027926  00000+0  48075-3 0  9994
2 66805  43.0000 188.6940 0002337 257.4659 267.2775 15.50542040  4649
STARLINK-36069          
1 66806U 25278R   25357.25001157  .00029328  00000+0  50453-3 0  9996
2 66806  42.9998 188.6994 0002313 259.0053 263.8198 15.50540373  4438
STARLINK-36000          
1 66807U 25278S   25357.25001157  .00018204  00000+0  31584-3 0  9992
2 66807  42.9997 188.6850 0001646 263.8806 264.7190 15.50539700  4700
