CCSDS_OMM_VERS = 2.0
CREATION_DATE  = 
ORIGINATOR     = 

OBJECT_NAME    = STARLINK-35964
OBJECT_ID      = 2025-278F
CENTER_NAME    = EARTH
REF_FRAME      = TEME
TIME_SYSTEM    = UTC
MEAN_ELEMENT_THEORY = SGP/SGP4

EPOCH          = 2025-12-23T00:15:52.445952
MEAN_MOTION    = 15.80936741
ECCENTRICITY   = .00022448
INCLINATION    = 42.9914
RA_OF_ASC_NODE = 188.0511
ARG_OF_PERICENTER = 289.9110
MEAN_ANOMALY   = 70.1520

EPHEMERIS_TYPE = 0
CLASSIFICATION_TYPE = U
NORAD_CAT_ID   = 66796
ELEMENT_SET_NO = 999
REV_AT_EPOCH   = 347
BSTAR          = .19554278E-2
MEAN_MOTION_DOT = .410276E-2
MEAN_MOTION_DDOT = 0

CCSDS_OMM_VERS = 2.0
CREATION_DATE  = 
ORIGINATOR     = 

OBJECT_NAME    = STARLINK-36099
OBJECT_ID      = 2025-278G
CENTER_NAME    = EARTH
REF_FRAME      = TEME
TIME_SYSTEM    = UTC
MEAN_ELEMENT_THEORY = SGP/SGP4

EPOCH          = 2025-12-23T06:00:00.999648
MEAN_MOTION    = 15.50540022
ECCENTRICITY   = .00019104
INCLINATION    = 42.9998
RA_OF_ASC_NODE = 188.7334
ARG_OF_PERICENTER = 254.9533
MEAN_ANOMALY   = 254.4695

EPHEMERIS_TYPE = 0
CLASSIFICATION_TYPE = U
NORAD_CAT_ID   = 66797
ELEMENT_SET_NO = 999
REV_AT_EPOCH   = 470
BSTAR          = .39493041E-3
MEAN_MOTION_DOT = .22863E-3
MEAN_MOTION_DDOT = 0

CCSDS_OMM_VERS = 2.0
CREATION_DATE  = 
ORIGINATOR     = 

OBJECT_NAME    = STARLINK-36041
OBJECT_ID      = 2025-278H
CENTER_NAME    = EARTH
REF_FRAME      = TEME
TIME_SYSTEM    = UTC
MEAN_ELEMENT_THEORY = SGP/SGP4

EPOCH          = 2025-12-23T06:00:00.999648
MEAN_MOTION    = 15.50541413
ECCENTRICITY   = .00022004
INCLINATION    = 42.9998
RA_OF_ASC_NODE = 188.7285
ARG_OF_PERICENTER = 260.1528
MEAN_ANOMALY   = 251.1688

EPHEMERIS_TYPE = 0
CLASSIFICATION_TYPE = U
NORAD_CAT_ID   = 66798
ELEMENT_SET_NO = 999
REV_AT_EPOCH   = 448
BSTAR          = .50716694E-3
MEAN_MOTION_DOT = .29485E-3
MEAN_MOTION_DDOT = 0

CCSDS_OMM_VERS = 2.0
CREATION_DATE  = 
ORIGINATOR     = 

OBJECT_NAME    = STARLINK-36044
OBJECT_ID      = 2025-278J
CENTER_NAME    = EARTH
REF_FRAME      = TEME
TIME_SYSTEM    = UTC
MEAN_ELEMENT_THEORY = SGP/SGP4

EPOCH          = 2025-12-23T06:00:00.999648
MEAN_MOTION    = 15.50549491
ECCENTRICITY   = .00017253
INCLINATION    = 42.9997
RA_OF_ASC_NODE = 188.7236
ARG_OF_PERICENTER = 249.0138
MEAN_ANOMALY   = 264.2227

EPHEMERIS_TYPE = 0
CLASSIFICATION_TYPE = U
NORAD_CAT_ID   = 66799
ELEMENT_SET_NO = 999
REV_AT_EPOCH   = 464
BSTAR          = .37217812E-3
MEAN_MOTION_DOT = .21529E-3
MEAN_MOTION_DDOT = 0

CCSDS_OMM_VERS = 2.0
CREATION_DATE  = 
ORIGINATOR     = 

OBJECT_NAME    = STARLINK-35996
OBJECT_ID      = 2025-278K
CENTER_NAME    = EARTH
REF_FRAME      = TEME
TIME_SYSTEM    = UTC
MEAN_ELEMENT_THEORY = SGP/SGP4

EPOCH          = 2025-12-23T06:00:00.999648
MEAN_MOTION    = 15.50540247
ECCENTRICITY   = .00017663
INCLINATION    = 42.9995
RA_OF_ASC_NODE = 188.7140
ARG_OF_PERICENTER = 266.9556
MEAN_ANOMALY   = 250.1368

EPHEMERIS_TYPE = 0
CLASSIFICATION_TYPE = U
NORAD_CAT_ID   = 66800
ELEMENT_SET_NO = 999
REV_AT_EPOCH   = 443
BSTAR          = .35100121E-3
MEAN_MOTION_DOT = .20275E-3
MEAN_MOTION_DDOT = 0

CCSDS_OMM_VERS = 2.0
CREATION_DATE  = 
ORIGINATOR     = 

OBJECT_NAME    = STARLINK-36080
OBJECT_ID      = 2025-278L
CENTER_NAME    = EARTH
REF_FRAME      = TEME
TIME_SYSTEM    = UTC
MEAN_ELEMENT_THEORY = SGP/SGP4

EPOCH          = 2025-12-23T06:00:00.999648
MEAN_MOTION    = 15.50539249
ECCENTRICITY   = .00023241
INCLINATION    = 43.0000
RA_OF_ASC_NODE = 188.6891
ARG_OF_PERICENTER = 260.9037
MEAN_ANOMALY   = 265.7539

EPHEMERIS_TYPE = 0
CLASSIFICATION_TYPE = U
NORAD_CAT_ID   = 66801
ELEMENT_SET_NO = 999
REV_AT_EPOCH   = 464
BSTAR          = .51919342E-3
MEAN_MOTION_DOT = .30192E-3
MEAN_MOTION_DDOT = 0

CCSDS_OMM_VERS = 2.0
CREATION_DATE  = 
ORIGINATOR     = 

OBJECT_NAME    = STARLINK-35604
OBJECT_ID      = 2025-278M
CENTER_NAME    = EARTH
REF_FRAME      = TEME
TIME_SYSTEM    = UTC
MEAN_ELEMENT_THEORY = SGP/SGP4

EPOCH          = 2025-12-23T06:00:00.999648
MEAN_MOTION    = 15.50548631
ECCENTRICITY   = .000222
INCLINATION    = 42.9996
RA_OF_ASC_NODE = 188.7190
ARG_OF_PERICENTER = 260.5968
MEAN_ANOMALY   = 254.5599

EPHEMERIS_TYPE = 0
CLASSIFICATION_TYPE = U
NORAD_CAT_ID   = 66802
ELEMENT_SET_NO = 999
REV_AT_EPOCH   = 464
BSTAR          = .3979797E-3
MEAN_MOTION_DOT = .2305E-3
MEAN_MOTION_DDOT = 0

CCSDS_OMM_VERS = 2.0
CREATION_DATE  = 
ORIGINATOR     = 

OBJECT_NAME    = STARLINK-35565
OBJECT_ID      = 2025-278N
CENTER_NAME    = EARTH
REF_FRAME      = TEME
TIME_SYSTEM    = UTC
MEAN_ELEMENT_THEORY = SGP/SGP4

EPOCH          = 2025-12-23T06:00:00.999648
MEAN_MOTION    = 15.50578406
ECCENTRICITY   = .00022745
INCLINATION    = 42.9998
RA_OF_ASC_NODE = 188.7094
ARG_OF_PERICENTER = 254.9944
MEAN_ANOMALY   = 263.9843

EPHEMERIS_TYPE = 0
CLASSIFICATION_TYPE = U
NORAD_CAT_ID   = 66803
ELEMENT_SET_NO = 999
REV_AT_EPOCH   = 473
BSTAR          = -.58748111E-3
MEAN_MOTION_DOT = -.34656E-3
MEAN_MOTION_DDOT = 0

CCSDS_OMM_VERS = 2.0
CREATION_DATE  = 
ORIGINATOR     = 

OBJECT_NAME    = STARLINK-36038
OBJECT_ID      = 2025-278P
CENTER_NAME    = EARTH
REF_FRAME      = TEME
TIME_SYSTEM    = UTC
MEAN_ELEMENT_THEORY = SGP/SGP4

EPOCH          = 2025-12-23T06:00:00.999648
MEAN_MOTION    = 15.50522223
ECCENTRICITY   = .00017192
INCLINATION    = 42.9997
RA_OF_ASC_NODE = 188.7041
ARG_OF_PERICENTER = 284.6148
MEAN_ANOMALY   = 236.3696

EPHEMERIS_TYPE = 0
CLASSIFICATION_TYPE = U
NORAD_CAT_ID   = 66804
ELEMENT_SET_NO = 999
REV_AT_EPOCH   = 464
BSTAR          = .47820886E-3
MEAN_MOTION_DOT = .27756E-3
MEAN_MOTION_DDOT = 0

CCSDS_OMM_VERS = 2.0
CREATION_DATE  = 
ORIGINATOR     = 

OBJECT_NAME    = STARLINK-36049
OBJECT_ID      = 2025-278Q
CENTER_NAME    = EARTH
REF_FRAME      = TEME
TIME_SYSTEM    = UTC
MEAN_ELEMENT_THEORY = SGP/SGP4

EPOCH          = 2025-12-23T06:00:00.999648
MEAN_MOTION    = 15.50542040
ECCENTRICITY   = .0002337
INCLINATION    = 43.0000
RA_OF_ASC_NODE = 188.6940
ARG_OF_PERICENTER = 257.4659
MEAN_ANOMALY   = 267.2775

EPHEMERIS_TYPE = 0
CLASSIFICATION_TYPE = U
NORAD_CAT_ID   = 66805
ELEMENT_SET_NO = 999
REV_AT_EPOCH   = 464
BSTAR          = .48075418E-3
MEAN_MOTION_DOT = .27926E-3
MEAN_MOTION_DDOT = 0

CCSDS_OMM_VERS = 2.0
CREATION_DATE  = 
ORIGINATOR     = 

OBJECT_NAME    = STARLINK-36069
OBJECT_ID      = 2025-278R
CENTER_NAME    = EARTH
REF_FRAME      = TEME
TIME_SYSTEM    = UTC
MEAN_ELEMENT_THEORY = SGP/SGP4

EPOCH          = 2025-12-23T06:00:00.999648
MEAN_MOTION    = 15.50540373
ECCENTRICITY   = .00023134
INCLINATION    = 42.9998
RA_OF_ASC_NODE = 188.6994
ARG_OF_PERICENTER = 259.0053
MEAN_ANOMALY   = 263.8198

EPHEMERIS_TYPE = 0
CLASSIFICATION_TYPE = U
NORAD_CAT_ID   = 66806
ELEMENT_SET_NO = 999
REV_AT_EPOCH   = 443
BSTAR          = .50452854E-3
MEAN_MOTION_DOT = .29328E-3
MEAN_MOTION_DDOT = 0

CCSDS_OMM_VERS = 2.0
CREATION_DATE  = 
ORIGINATOR     = 

OBJECT_NAME    = STARLINK-36000
OBJECT_ID      = 2025-278S
CENTER_NAME    = EARTH
REF_FRAME      = TEME
TIME_SYSTEM    = UTC
MEAN_ELEMENT_THEORY = SGP/SGP4

EPOCH          = 2025-12-23T06:00:00.999648
MEAN_MOTION    = 15.50539700
ECCENTRICITY   = .00016468
INCLINATION    = 42.9997
RA_OF_ASC_NODE = 188.6850
ARG_OF_PERICENTER = 263.8806
MEAN_ANOMALY   = 264.7190

EPHEMERIS_TYPE = 0
CLASSIFICATION_TYPE = U
NORAD_CAT_ID   = 66807
ELEMENT_SET_NO = 999
REV_AT_EPOCH   = 470
BSTAR          = .31584142E-3
MEAN_MOTION_DOT = .18204E-3
MEAN_MOTION_DDOT = 0

